OPTICUBE 04             
1 41851U 16067D   26068.51005515  .00003771  00000+0  24102-3 0  9992
2 41851  98.0811 275.5525 0017089  94.6311 265.6869 15.09188144510131
STARLINK-4190           
1 53001U 22076R   26068.33978810  .00000093  00000+0  23948-4 0  9998
2 53001  53.2160  95.6918 0001066  72.4522 287.6587 15.08837005202791
